OBJECT_NAME,OBJECT_ID,EPOCH,MEAN_MOTION,ECCENTRICITY,INCLINATION,RA_OF_ASC_NODE,ARG_OF_PERICENTER,MEAN_ANOMALY,EPHEMERIS_TYPE,CLASSIFICATION_TYPE,NORAD_CAT_ID,ELEMENT_SET_NO,REV_AT_EPOCH,BSTAR,MEAN_MOTION_DOT,MEAN_MOTION_DDOT
STARLINK-6252,2023-065BE,2026-06-10T23:33:43.435872,15.27579309,.000166,43.0069,56.4044,267.0400,93.0262,0,U,56555,999,17074,.27002713E-4,.481E-5,0
STARLINK-5302,2023-065BF,2026-06-11T09:19:01.409664,15.27576409,.0001075,43.0029,54.2896,240.5348,119.5397,0,U,56556,999,17080,.12753E-4,.89E-6,0
STARLINK-6265,2023-065BG,2026-06-11T23:43:04.790496,15.27578317,.00011543,43.0054,51.0512,260.5420,99.5301,0,U,56557,999,17089,-.4340055E-5,-.382E-5,0
STARLINK-6286,2023-065BH,2026-06-11T23:44:13.854336,15.27571381,.00012574,43.0014,54.4595,243.3929,116.6794,0,U,56558,999,17085,-.30427433E-4,-.1099E-4,0
BEIDOU-3 G4,2023-066A,2026-06-10T08:49:24.195360,1.00265779,.00043973,0.4953,329.6081,171.1303,30.2733,0,U,56564,999,1132,0,-.265E-5,0
STARLINK-30122,2023-067A,2026-06-10T13:53:31.627392,15.27580889,.00006795,43.0036,113.4707,270.9264,89.1510,0,U,56688,999,16989,.46947006E-4,.103E-4,0
STARLINK-30129,2023-067B,2026-06-11T12:59:15.576864,15.27573992,.0001138,43.0045,111.2098,271.3209,88.7513,0,U,56689,999,16993,.50475E-5,-.123E-5,0
STARLINK-30124,2023-067C,2026-06-11T13:08:30.818688,15.27571567,.0001034,43.0007,111.2690,264.3124,95.7610,0,U,56690,999,16993,.12529E-4,.83E-6,0
STARLINK-30036,2023-067E,2026-06-11T03:30:37.096416,15.27577919,.00013671,43.0054,113.4340,260.4080,99.6617,0,U,56692,999,16874,.14959617E-4,.149E-5,0
STARLINK-30067,2023-067F,2026-06-11T13:04:48.781056,15.27568911,.0001124,43.0021,111.2655,266.0138,94.0585,0,U,56693,999,16993,.53472E-4,.1209E-4,0
STARLINK-30126,2023-067G,2026-06-11T12:42:11.189952,15.27572809,.0000745,43.0060,104.3375,262.1903,97.8864,0,U,56694,999,17001,-.10773E-4,-.558E-5,0
STARLINK-30121,2023-067H,2026-06-11T13:10:21.154944,15.27582118,.000099,43.0112,111.2659,274.4116,85.6622,0,U,56695,999,16993,-.42652E-4,-.1436E-4,0
STARLINK-30130,2023-067K,2026-06-11T03:10:34.299552,15.27476353,.00011094,43.0124,103.1070,204.8554,155.2245,0,U,56697,999,16973,.86078297E-3,.23425E-3,0
STARLINK-30068,2023-067L,2026-06-11T11:40:12.781056,15.27578609,.0000993,43.0048,90.1755,259.8179,100.2561,0,U,56698,999,16991,-.12117E-5,-.295E-5,0
STARLINK-30127,2023-067M,2026-06-11T13:21:28.174176,15.27575426,.0001074,43.0034,111.3535,254.0266,106.0467,0,U,56699,999,16993,.68305E-5,-.74E-6,0
STARLINK-30053,2023-067N,2026-06-11T13:06:55.922112,15.27592414,.00014525,42.9914,101.0634,92.9387,267.1631,0,U,56700,999,17005,.80802567E-4,.1963E-4,0
STARLINK-30125,2023-067P,2026-06-10T13:30:53.307936,15.27579078,.00014101,43.0178,106.5829,262.5147,97.5545,0,U,56701,999,16990,-.6493143E-5,-.441E-5,0
STARLINK-30117,2023-067Q,2026-06-10T13:57:12.522816,15.27578490,.0001678,43.0180,113.4577,271.1898,88.8762,0,U,56702,999,16982,.20019974E-4,.288E-5,0
STARLINK-30132,2023-067R,2026-06-11T02:49:28.949088,15.27578184,.00010749,43.0006,106.4032,241.9049,118.1695,0,U,56703,999,16995,.2817268E-4,.513E-5,0
STARLINK-30066,2023-067S,2026-06-11T12:41:01.905792,15.27587784,.0001134,43.0060,100.9094,272.8335,87.2387,0,U,56704,999,17005,-.11098E-3,-.3315E-4,0
STARLINK-30080,2023-067T,2026-06-11T12:42:12.376224,15.27577251,.0001522,43.0079,93.0988,267.5178,92.5499,0,U,56705,999,17014,.90501E-5,-.13E-6,0
STARLINK-30079,2023-067U,2026-06-11T13:12:13.129344,15.27575423,.0000931,43.0030,111.3055,248.6460,111.4292,0,U,56706,999,16993,.40095E-5,-.152E-5,0
STARLINK-30070,2023-067V,2026-06-11T13:08:47.675328,15.27576214,.0001235,43.0145,101.0680,261.8485,98.2227,0,U,56707,999,17005,-.1244E-5,-.297E-5,0
STARLINK-30071,2023-067W,2026-06-10T13:50:32.394048,15.27578412,.00002984,42.9995,110.0829,232.3334,127.7491,0,U,56708,999,16986,.1872435E-5,-.21E-5,0
STARLINK-30085,2023-067X,2026-06-11T12:29:56.378688,15.27575555,.0000817,43.0079,100.8612,277.7034,82.3725,0,U,56709,999,16979,.1155E-4,.56E-6,0
ONEWEB-0561,2023-068A,2026-06-11T19:39:17.483040,13.20770480,.00017963,87.9192,275.5130,89.5353,270.5986,0,U,56710,999,14879,-.60813302E-4,-.12E-6,0
ONEWEB-0668,2023-068B,2026-06-11T17:29:58.547904,13.16594135,.00025588,87.9100,229.8561,102.2004,257.9413,0,U,56711,999,15106,.114447E-6,.13E-6,0
ONEWEB-0676,2023-068C,2026-06-11T17:41:21.215904,13.16593028,.00020901,87.9101,229.8603,88.4889,271.6481,0,U,56712,999,15098,-.51886824E-4,-.7E-7,0
ONEWEB-0677,2023-068D,2026-06-11T19:22:17.571648,13.20769611,.00023101,87.9191,275.5069,94.2635,265.8763,0,U,56713,999,14909,.88451571E-4,.49E-6,0
ONEWEB-0678,2023-068E,2026-06-11T20:03:48.386880,13.15548082,.0001685,87.9009,260.2588,99.8424,260.2896,0,U,56714,999,14858,-.47650789E-3,-.167E-5,0
ONEWEB-0679,2023-068F,2026-06-11T16:42:05.690016,13.16593783,.00026065,87.9096,229.8603,93.7906,266.3523,0,U,56715,999,15100,-.11488993E-3,-.31E-6,0
ONEWEB-0680,2023-068G,2026-06-11T17:18:52.911072,13.21827563,.00026233,87.9262,245.0580,101.0873,259.0556,0,U,56716,999,15037,-.14693334E-4,.7E-7,0
ONEWEB-0681,2023-068H,2026-06-11T18:40:01.653024,13.21826584,.00021907,87.9257,245.0481,73.2736,286.8638,0,U,56717,999,15037,.36141068E-4,.28E-6,0
ONEWEB-0682,2023-068J,2026-06-11T22:27:34.085088,13.15548626,.00025192,87.9004,260.2397,101.8992,258.2421,0,U,56718,999,14876,.3339891E-5,.14E-6,0
ONEWEB-0683,2023-068K,2026-06-11T19:22:44.981184,13.15548650,.00022182,87.9011,260.2648,104.5781,255.5595,0,U,56719,999,14871,.11151965E-3,.55E-6,0
ONEWEB-0684,2023-068L,2026-06-11T19:34:08.984064,13.15548107,.00011696,87.9009,260.2533,142.7406,217.3805,0,U,56720,999,14854,-.84321595E-4,-.19E-6,0
ONEWEB-0686,2023-068M,2026-06-11T17:34:32.322720,13.16594598,.0002144,87.9092,229.8768,107.3721,252.7645,0,U,56721,999,15099,-.99565187E-4,-.25E-6,0
ONEWEB-0694,2023-068N,2026-06-11T15:54:13.086144,13.16594692,.00025145,87.9112,229.8539,101.3560,258.7854,0,U,56722,999,15104,-.22039035E-3,-.71E-6,0
ONEWEB-0696,2023-068P,2026-06-11T18:32:30.791904,13.15546382,.00014896,87.8999,260.3006,98.6160,261.5139,0,U,56723,999,14865,-.28193996E-3,-.93E-6,0
ONEWEB-0703,2023-068Q,2026-06-11T18:46:14.179584,13.15548169,.00012604,87.8999,260.2799,81.6614,278.4659,0,U,56724,999,14854,-.81232E-7,.13E-6,0
ONEWEB-0721,2023-068R,2026-06-11T18:26:03.129792,13.22468581,.00019179,86.6768,87.2458,78.1316,282.0032,0,U,56725,999,15722,-.76590816E-4,-.17E-6,0
IRIDIUM 181,2023-068S,2026-06-11T18:26:03.402816,14.43311779,.00023353,86.4503,59.0559,89.7407,270.4061,0,U,56726,999,16165,.73542394E-4,.268E-5,0
IRIDIUM 177,2023-068T,2026-06-11T21:56:47.463936,14.80220221,.00024083,86.1959,331.2963,87.4422,272.7075,0,U,56727,999,16558,.11554161E-3,.904E-5,0
IRIDIUM 174,2023-068U,2026-06-11T22:03:46.936800,14.72256568,.00025372,86.6098,355.8939,84.7814,275.3692,0,U,56728,999,16524,.10337722E-3,.677E-5,0
IRIDIUM 178,2023-068V,2026-06-11T15:11:45.141504,14.80224307,.00026797,86.6542,27.6815,87.4832,272.6696,0,U,56729,999,16554,.11027688E-3,.864E-5,0
IRIDIUM 179,2023-068W,2026-06-11T16:41:20.406048,14.80236495,.00024017,86.6781,36.6189,88.1339,272.0158,0,U,56730,999,16555,.12241597E-3,.956E-5,0
2023-069A,2023-069A,2026-06-11T13:33:45.045216,15.41344752,.0008279,40.9943,211.1697,250.4910,109.5020,0,U,56731,999,17218,.16548E-3,.683E-4,0
2023-069B,2023-069B,2026-06-11T20:37:32.670624,15.10483496,.00117063,41.0081,99.3094,216.8358,143.1652,0,U,56732,999,16942,.26805985E-3,.432E-4,0
NEXTSAT-2,2023-072A,2026-06-11T23:53:11.687424,15.27737544,.00066661,97.5252,359.9359,49.3533,310.8284,0,U,56743,999,16880,.22842904E-3,.6117E-4,0
SNIPE 4,2023-072B,2026-06-11T23:00:14.565024,15.42141985,.00048953,97.5260,8.7992,359.9440,0.1805,0,U,56744,999,16930,.46641134E-3,.19919E-3,0
SNIPE 2,2023-072C,2026-06-11T22:50:31.667424,15.46590228,.00047309,97.5252,11.7999,33.3147,326.8399,0,U,56745,999,16943,.46922432E-3,.23309E-3,0
2023-072D,2023-072D,2026-06-11T22:49:39.889632,15.69211842,.00005696,97.4926,18.8911,76.9787,283.1538,0,U,56746,999,17004,.77355475E-3,.90555E-3,0
2023-072E,2023-072E,2026-06-11T23:04:39.945216,15.47805608,.00036636,97.5063,12.0017,25.1810,334.9618,0,U,56747,999,16957,.45646843E-3,.23643E-3,0
2023-072F,2023-072F,2026-06-11T22:31:01.700832,15.31224998,.00067055,97.5113,0.8644,46.3364,313.8432,0,U,56748,999,16897,.27351236E-3,.8176E-4,0
2023-072G,2023-072G,2026-06-11T23:09:11.674080,15.50277903,.00033879,97.4916,10.6105,26.2427,333.8995,0,U,56749,999,16965,.50777316E-3,.28707E-3,0
KONDOR-FKA NO. 1,2023-074A,2026-06-11T22:51:34.307424,15.19751670,.00017321,97.4417,357.5901,90.3776,269.7657,0,U,56756,999,16889,.18273981E-3,.3839E-4,0
ARABSAT-7B (BADR-8),2023-075A,2026-06-11T13:22:05.899872,1.00270990,.0004683,0.0752,27.3353,354.7630,104.3415,0,U,56757,999,1106,0,.161E-5,0
NVS-01 (IRNSS-1J),2023-076A,2026-06-11T22:24:55.935072,1.00267373,.00031236,2.1792,244.6021,37.7448,83.7087,0,U,56759,999,1106,0,-.318E-5,0
STARLINK-6197,2023-078A,2026-06-11T22:43:06.020544,15.20476431,.00034138,69.9884,104.3391,328.8320,31.2648,0,U,56767,999,16686,.40112525E-3,.8678E-4,0
STARLINK-6198,2023-078B,2026-06-11T22:21:13.552704,14.98330555,.00027217,70.0002,86.7054,266.7586,93.3262,0,U,56768,999,16729,.20450868E-3,.2348E-4,0
STARLINK-6342,2023-078D,2026-06-11T22:22:07.932864,14.98317253,.00030647,69.9994,126.8414,267.7012,92.3797,0,U,56770,999,16630,.15424965E-4,.91E-6,0
STARLINK-6275,2023-078F,2026-06-11T22:15:52.466112,14.98331561,.00035243,69.9995,126.8245,264.3482,95.7275,0,U,56772,999,16630,.10796973E-4,.36E-6,0
STARLINK-6296,2023-078G,2026-06-11T21:32:49.897536,14.98333149,.0002484,70.0022,67.1019,262.5238,97.5639,0,U,56773,999,16777,-.41679521E-4,-.59E-5,0
STARLINK-6190,2023-078H,2026-06-11T22:45:55.643616,14.98322041,.00032582,69.9991,126.8949,268.1983,91.8803,0,U,56774,999,16630,.36546499E-4,.343E-5,0
STARLINK-6292,2023-078J,2026-06-11T23:02:57.433344,14.98330034,.00029525,70.0003,66.9150,268.1175,91.9646,0,U,56775,999,16778,.1265198E-4,.58E-6,0
